STARLINK-32502          
1 62116U 24222C   26068.53238193  .00024599  00000+0  89995-3 0  9995
2 62116  43.0018 137.1814 0002243 283.9837  76.0766 15.27597575 72789
TEVEL2-9                
1 63237U 25052AD  26068.70229538  .00018694  00000+0  67240-3 0  9992
2 63237  97.4057 324.3929 0007990 124.2475 235.9522 15.28633834 54816
