[{"OBJECT_NAME":"STARLINK-32502","OBJECT_ID":"2024-222C","EPOCH":"2026-03-09T12:46:37.798752","MEAN_MOTION":15.27597575,"ECCENTRICITY":0.0002243,"INCLINATION":43.0018,"RA_OF_ASC_NODE":137.1814,"ARG_OF_PERICENTER":283.9837,"MEAN_ANOMALY":76.0766,"EPHEMERIS_TYPE":0,"CLASSIFICATION_TYPE":"U","NORAD_CAT_ID":62116,"ELEMENT_SET_NO":999,"REV_AT_EPOCH":7278,"BSTAR":0.00089995,"MEAN_MOTION_DOT":0.00024599,"MEAN_MOTION_DDOT":0},{"OBJECT_NAME":"TEVEL2-9","OBJECT_ID":"2025-052AD","EPOCH":"2026-03-09T16:51:18.321696","MEAN_MOTION":15.28633834,"ECCENTRICITY":0.000799,"INCLINATION":97.4057,"RA_OF_ASC_NODE":324.3929,"ARG_OF_PERICENTER":124.2475,"MEAN_ANOMALY":235.9522,"EPHEMERIS_TYPE":0,"CLASSIFICATION_TYPE":"U","NORAD_CAT_ID":63237,"ELEMENT_SET_NO":999,"REV_AT_EPOCH":5481,"BSTAR":0.00067240159,"MEAN_MOTION_DOT":0.00018694,"MEAN_MOTION_DDOT":0}]
